QIANFAN-206             
1 69805U 26153F   26196.17708016  .00000051  00000+0  15910-4 0  9994
2 69805  88.9922 359.0510 0007916 183.0333 177.0812 14.24034465  1544
QIANFAN-207             
1 69806U 26153G   26196.17584588  .00000051  00000+0  15860-4 0  9995
2 69806  88.9922 359.0507 0007330 182.9573 177.1578 14.24250039  1542
QIANFAN-208             
1 69807U 26153H   26196.17542655  .00000174  00000+0  67640-4 0  9994
2 69807  88.9921 359.0506 0008139 183.7543 176.3590 14.25461837  1541
QIANFAN-209             
1 69808U 26153J   26195.61337363 -.02070324  00000+0 -10397+1 0  9992
2 69808  88.9908 359.1167 0008274 178.8325 181.2887 14.20762930  1462
QIANFAN-210             
1 69809U 26153K   26195.68297707 -.02042274  00000+0 -10366+1 0  9996
2 69809  88.9915 359.1074 0010389 191.6452 168.4500 14.20126784  1473
QIANFAN-211             
1 69810U 26153L   26195.68091712 -.01775116  00000+0 -86918+0 0  9998
2 69810  88.9914 359.1072 0008431 174.5357 185.5928 14.22142547  1472
QIANFAN-212             
1 69811U 26153M   26195.61080657 -.01881657  00000+0 -89574+0 0  9997
2 69811  88.9914 359.1153 0010101 163.2686 196.8841 14.23200288  1466
QIANFAN-213             
1 69812U 26153N   26195.89296126  .00000272  00000+0  10662-3 0  9997
2 69812  88.9921 359.0828 0007751 186.7399 173.3692 14.26714951  1500
QIANFAN-214             
1 69813U 26153P   26196.17350169  .00000176  00000+0  66909-4 0  9997
2 69813  88.9921 359.0505 0007743 184.1723 175.9407 14.26714920  1549
QIANFAN-215             
1 69814U 26153Q   26195.61112580 -.01934146  00000+0 -92409+0 0  9994
2 69814  88.9913 359.1151 0009638 160.5835 199.5726 14.23118178  1463
QIANFAN-216             
1 69815U 26153R   26196.17347176  .00000043  00000+0  11883-4 0  9997
2 69815  88.9919 359.0506 0007740 186.3288 173.7810 14.26719044  1542
QIANFAN-217             
1 69816U 26153S   26196.17309769  .00000074  00000+0  24325-4 0  9993
2 69816  88.9920 359.0502 0007487 181.8008 178.3160 14.26767952  1549
QIANFAN-218             
1 69817U 26153T   26196.17278554  .00000171  00000+0  64598-4 0  9995
2 69817  88.9922 359.0505 0007265 178.9249 181.1962 14.26810529  1544
CZ-6A R/B               
1 69818U 26153U   26196.17404058  .00000202  00000+0  77612-4 0  9992
2 69818  88.9922 359.0505 0007999 182.3157 177.8001 14.26540965  1546
STARLINK-37520          
1 69819U 26154A   26196.16670139 -.01661379  00000+0 -82793-2 0  9993
2 69819  53.1594 293.1051 0000893  82.2156 112.0921 15.84171491  2668
STARLINK-37553          
1 69820U 26154B   26196.16670139 -.01657941  00000+0 -82204-2 0  9992
2 69820  53.1591 293.0969 0000958  96.3818 101.9015 15.84268770  2665
STARLINK-37561          
1 69821U 26154C   26196.16670139 -.01670757  00000+0 -82512-2 0  9995
2 69821  53.1594 293.0886 0001005  86.0253 116.2300 15.84374548  2667
STARLINK-37521          
1 69822U 26154D   26196.16670139 -.01663968  00000+0 -81536-2 0  9997
2 69822  53.1593 293.0807 0001069  84.1783 121.8343 15.84522128  2665
STARLINK-37628          
1 69823U 26154E   26196.16670139 -.01674445  00000+0 -81683-2 0  9993
2 69823  53.1592 293.0724 0001072  78.2908 131.6399 15.84634299  2663
STARLINK-37695          
1 69824U 26154F   26196.16670139 -.01974898  00000+0 -79319-2 0  9992
2 69824  53.1589 293.0279 0001071  90.2403 141.4374 15.88558732  2661
STARLINK-37690          
1 69825U 26154G   26196.16670139 -.01677391  00000+0 -80892-2 0  9999
2 69825  53.1589 293.0570 0000739  82.4412 135.1649 15.84879924  2669
STARLINK-37710          
1 69826U 26154H   26196.16670139 -.01697673  00000+0 -81540-2 0  9996
2 69826  53.1592 293.0485 0000960  94.2500 127.2555 15.84998828  2667
STARLINK-38031          
1 69827U 26154J   26196.16670139 -.01694764  00000+0 -80894-2 0  9996
2 69827  53.1590 293.0409 0000799  91.9935 133.2917 15.85123035  2668
STARLINK-38001          
1 69828U 26154K   26196.16670139 -.01695229  00000+0 -80404-2 0  9991
2 69828  53.1589 293.0330 0000782  81.6557 147.3761 15.85254096  2663
STARLINK-37622          
1 69829U 26154L   26196.16670139 -.01703760  00000+0 -80342-2 0  9993
2 69829  53.1592 293.0252 0000892  87.4713 145.3115 15.85387076  2667
STARLINK-37621          
1 69830U 26154M   26196.16670139 -.01694433  00000+0 -79276-2 0  9995
2 69830  53.1590 293.0177 0000865  80.0847 156.3278 15.85530355  2662
STARLINK-37918          
1 69831U 26154N   26196.16670139 -.01696121  00000+0 -78771-2 0  9991
2 69831  53.1590 293.0102 0000871  87.3578 152.6467 15.85683782  2661
STARLINK-37887          
1 69832U 26154P   26196.16670139 -.01682896  00000+0 -77507-2 0  9992
2 69832  53.1590 293.0028 0000978  84.2669 159.3037 15.85827386  2661
STARLINK-37624          
1 69833U 26154Q   26196.16670139 -.01695829  00000+0 -77811-2 0  9991
2 69833  53.1587 292.9949 0001001  86.4011 161.0402 15.85927241  2668
STARLINK-37769          
1 69834U 26154R   26196.16670139 -.01701679  00000+0 -77691-2 0  9999
2 69834  53.1587 292.9871 0001065  93.4952 157.7240 15.86038565  2660
