OBJECT_NAME,OBJECT_ID,EPOCH,MEAN_MOTION,ECCENTRICITY,INCLINATION,RA_OF_ASC_NODE,ARG_OF_PERICENTER,MEAN_ANOMALY,EPHEMERIS_TYPE,CLASSIFICATION_TYPE,NORAD_CAT_ID,ELEMENT_SET_NO,REV_AT_EPOCH,BSTAR,MEAN_MOTION_DOT,MEAN_MOTION_DDOT
QIANFAN-206,2026-153F,2026-07-15T04:14:59.725824,14.24034465,.0007916,88.9922,359.0510,183.0333,177.0812,0,U,69805,999,154,.1591E-4,.51E-6,0
QIANFAN-207,2026-153G,2026-07-15T04:13:13.084032,14.24250039,.000733,88.9922,359.0507,182.9573,177.1578,0,U,69806,999,154,.1586E-4,.51E-6,0
QIANFAN-208,2026-153H,2026-07-15T04:12:36.853920,14.25461837,.0008139,88.9921,359.0506,183.7543,176.3590,0,U,69807,999,154,.6764E-4,.174E-5,0
QIANFAN-209,2026-153J,2026-07-14T14:43:15.481632,14.20762930,.00082742,88.9908,359.1167,178.8325,181.2887,0,U,69808,999,146,-.10396947E+1,-.2070324E-1,0
QIANFAN-210,2026-153K,2026-07-14T16:23:29.218848,14.20126784,.00103892,88.9915,359.1074,191.6452,168.4500,0,U,69809,999,147,-.10366022E+1,-.2042274E-1,0
QIANFAN-211,2026-153L,2026-07-14T16:20:31.239168,14.22142547,.00084311,88.9914,359.1072,174.5357,185.5928,0,U,69810,999,147,-.86918053E+0,-.1775116E-1,0
QIANFAN-212,2026-153M,2026-07-14T14:39:33.687648,14.23200288,.00101014,88.9914,359.1153,163.2686,196.8841,0,U,69811,999,146,-.89574336E+0,-.1881657E-1,0
QIANFAN-213,2026-153N,2026-07-14T21:25:51.852864,14.26714951,.0007751,88.9921,359.0828,186.7399,173.3692,0,U,69812,999,150,.10662E-3,.272E-5,0
QIANFAN-214,2026-153P,2026-07-15T04:09:50.546016,14.26714920,.0007743,88.9921,359.0505,184.1723,175.9407,0,U,69813,999,154,.66909E-4,.176E-5,0
QIANFAN-215,2026-153Q,2026-07-14T14:40:01.269120,14.23118178,.00096388,88.9913,359.1151,160.5835,199.5726,0,U,69814,999,146,-.9240869E+0,-.1934146E-1,0
QIANFAN-216,2026-153R,2026-07-15T04:09:47.960064,14.26719044,.000774,88.9919,359.0506,186.3288,173.7810,0,U,69815,999,154,.11883E-4,.43E-6,0
QIANFAN-217,2026-153S,2026-07-15T04:09:15.640416,14.26767952,.0007487,88.9920,359.0502,181.8008,178.3160,0,U,69816,999,154,.24325E-4,.74E-6,0
QIANFAN-218,2026-153T,2026-07-15T04:08:48.670656,14.26810529,.0007265,88.9922,359.0505,178.9249,181.1962,0,U,69817,999,154,.64598E-4,.171E-5,0
CZ-6A R/B,2026-153U,2026-07-15T04:10:37.106112,14.26540965,.0007999,88.9922,359.0505,182.3157,177.8001,0,U,69818,999,154,.77612E-4,.202E-5,0
STARLINK-37520,2026-154A,2026-07-15T04:00:03.000096,15.84171491,.0000893,53.1594,293.1051,82.2156,112.0921,0,U,69819,999,266,-.82793E-2,-.1661379E-1,0
STARLINK-37553,2026-154B,2026-07-15T04:00:03.000096,15.84268770,.0000958,53.1591,293.0969,96.3818,101.9015,0,U,69820,999,266,-.82204E-2,-.1657941E-1,0
STARLINK-37561,2026-154C,2026-07-15T04:00:03.000096,15.84374548,.0001005,53.1594,293.0886,86.0253,116.2300,0,U,69821,999,266,-.82512E-2,-.1670757E-1,0
STARLINK-37521,2026-154D,2026-07-15T04:00:03.000096,15.84522128,.0001069,53.1593,293.0807,84.1783,121.8343,0,U,69822,999,266,-.81536E-2,-.1663968E-1,0
STARLINK-37628,2026-154E,2026-07-15T04:00:03.000096,15.84634299,.0001072,53.1592,293.0724,78.2908,131.6399,0,U,69823,999,266,-.81683E-2,-.1674445E-1,0
STARLINK-37695,2026-154F,2026-07-15T04:00:03.000096,15.88558732,.0001071,53.1589,293.0279,90.2403,141.4374,0,U,69824,999,266,-.79319E-2,-.1974898E-1,0
STARLINK-37690,2026-154G,2026-07-15T04:00:03.000096,15.84879924,.0000739,53.1589,293.0570,82.4412,135.1649,0,U,69825,999,266,-.80892E-2,-.1677391E-1,0
STARLINK-37710,2026-154H,2026-07-15T04:00:03.000096,15.84998828,.000096,53.1592,293.0485,94.2500,127.2555,0,U,69826,999,266,-.8154E-2,-.1697673E-1,0
STARLINK-38031,2026-154J,2026-07-15T04:00:03.000096,15.85123035,.0000799,53.1590,293.0409,91.9935,133.2917,0,U,69827,999,266,-.80894E-2,-.1694764E-1,0
STARLINK-38001,2026-154K,2026-07-15T04:00:03.000096,15.85254096,.0000782,53.1589,293.0330,81.6557,147.3761,0,U,69828,999,266,-.80404E-2,-.1695229E-1,0
STARLINK-37622,2026-154L,2026-07-15T04:00:03.000096,15.85387076,.0000892,53.1592,293.0252,87.4713,145.3115,0,U,69829,999,266,-.80342E-2,-.170376E-1,0
STARLINK-37621,2026-154M,2026-07-15T04:00:03.000096,15.85530355,.0000865,53.1590,293.0177,80.0847,156.3278,0,U,69830,999,266,-.79276E-2,-.1694433E-1,0
STARLINK-37918,2026-154N,2026-07-15T04:00:03.000096,15.85683782,.0000871,53.1590,293.0102,87.3578,152.6467,0,U,69831,999,266,-.78771E-2,-.1696121E-1,0
STARLINK-37887,2026-154P,2026-07-15T04:00:03.000096,15.85827386,.0000978,53.1590,293.0028,84.2669,159.3037,0,U,69832,999,266,-.77507E-2,-.1682896E-1,0
STARLINK-37624,2026-154Q,2026-07-15T04:00:03.000096,15.85927241,.0001001,53.1587,292.9949,86.4011,161.0402,0,U,69833,999,266,-.77811E-2,-.1695829E-1,0
STARLINK-37769,2026-154R,2026-07-15T04:00:03.000096,15.86038565,.0001065,53.1587,292.9871,93.4952,157.7240,0,U,69834,999,266,-.77691E-2,-.1701679E-1,0
